"97029C" "Sol/Earth"
{
	Mesh "satellite.3ds"
	Radius 0.005

	EllipticalOrbit
	{
		Period          0.97201276
		SemiMajorAxis  41458.43451378144
		Eccentricity    0.0235443
		Inclination     2.8101
		AscendingNode   92.9801
		ArgOfPericenter 176.6641
		MeanAnomaly     183.1469
		Epoch           2452332.29047545
	}
        Albedo              10
}

"99005A" "Sol/Earth"
{
	Mesh "satellite.3ds"
	Radius 0.005

	EllipticalOrbit
	{
		Period          0.9972914
		SemiMajorAxis  42174.14634137476
		Eccentricity    1.996E-4
		Inclination     0.0377
		AscendingNode   2.6165
		ArgOfPericenter 81.3808
		MeanAnomaly     272.625
		Epoch           2452345.00849086
	}
        Albedo              10
}

"99006A" "Sol/Earth"
{
	Mesh "satellite.3ds"
	Radius 0.005

	EllipticalOrbit
	{
		Period          0.99732757
		SemiMajorAxis  42175.16633895845
		Eccentricity    4.36E-5
		Inclination     0.0405
		AscendingNode   68.0318
		ArgOfPericenter 94.9187
		MeanAnomaly     65.5811
		Epoch           2452343.05532248
	}
        Albedo              10
}

"99009A" "Sol/Earth"
{
	Mesh "satellite.3ds"
	Radius 0.005

	EllipticalOrbit
	{
		Period          0.9972162
		SemiMajorAxis  42172.02732838197
		Eccentricity    3.527E-4
		Inclination     0.0712
		AscendingNode   158.728
		ArgOfPericenter 290.6217
		MeanAnomaly     140.2648
		Epoch           2452345.32474001
	}
        Albedo              10
}

"99009B" "Sol/Earth"
{
	Mesh "satellite.3ds"
	Radius 0.005

	EllipticalOrbit
	{
		Period          0.99723405
		SemiMajorAxis  42172.52977957665
		Eccentricity    3.513E-4
		Inclination     1.9271
		AscendingNode   341.5663
		ArgOfPericenter 122.5815
		MeanAnomaly     282.6286
		Epoch           2452345.68474729
	}
        Albedo              10
}

"99010A" "Sol/Earth"
{
	Mesh "satellite.3ds"
	Radius 0.005

	EllipticalOrbit
	{
		Period          0.99727756
		SemiMajorAxis  42173.75648731037
		Eccentricity    1.261E-4
		Inclination     2.4536
		AscendingNode   120.0378
		ArgOfPericenter 330.5166
		MeanAnomaly     205.1118
		Epoch           2452346.48083395
	}
        Albedo              10
}

"99010D" "Sol/Earth"
{
	Mesh "satellite.3ds"
	Radius 0.005

	EllipticalOrbit
	{
		Period          1.0199144
		SemiMajorAxis  42809.55708122619
		Eccentricity    0.0017305
		Inclination     2.4692
		AscendingNode   120.8379
		ArgOfPericenter 76.8653
		MeanAnomaly     282.8921
		Epoch           2452339.58628134
	}
        Albedo              10
}

"99013A" "Sol/Earth"
{
	Mesh "satellite.3ds"
	Radius 0.005

	EllipticalOrbit
	{
		Period          0.9973176
		SemiMajorAxis  42174.8857148235
		Eccentricity    1.072E-4
		Inclination     0.0344
		AscendingNode   191.8434
		ArgOfPericenter 262.7081
		MeanAnomaly     7.1834
		Epoch           2452345.74704109
	}
        Albedo              10
}

"99016A" "Sol/Earth"
{
	Mesh "satellite.3ds"
	Radius 0.005

	EllipticalOrbit
	{
		Period          0.9972904
		SemiMajorAxis  42174.117774543294
		Eccentricity    2.842E-4
		Inclination     0.0429
		AscendingNode   266.2135
		ArgOfPericenter 155.7432
		MeanAnomaly     157.9775
		Epoch           2452346.13679616
	}
        Albedo              10
}

"99018A" "Sol/Earth"
{
	Mesh "satellite.3ds"
	Radius 0.005

	EllipticalOrbit
	{
		Period          0.9972844
		SemiMajorAxis  42173.949734162336
		Eccentricity    4.156E-4
		Inclination     0.0169
		AscendingNode   25.9557
		ArgOfPericenter 43.8887
		MeanAnomaly     237.395
		Epoch           2452342.60011575
	}
        Albedo              10
}

"99027A" "Sol/Earth"
{
	Mesh "satellite.3ds"
	Radius 0.005

	EllipticalOrbit
	{
		Period          0.99728763
		SemiMajorAxis  42174.040476009635
		Eccentricity    1.897E-4
		Inclination     0.0176
		AscendingNode   291.3515
		ArgOfPericenter 166.1691
		MeanAnomaly     201.4284
		Epoch           2452344.8435512
	}
        Albedo              10
}

"99033A" "Sol/Earth"
{
	Mesh "satellite.3ds"
	Radius 0.005

	EllipticalOrbit
	{
		Period          0.99727565
		SemiMajorAxis  42173.702714194565
		Eccentricity    2.995E-4
		Inclination     0.0122
		AscendingNode   319.8851
		ArgOfPericenter 65.1991
		MeanAnomaly     248.381
		Epoch           2452332.5
	}
        Albedo              10
}

"99042A" "Sol/Earth"
{
	Mesh "satellite.3ds"
	Radius 0.005

	EllipticalOrbit
	{
		Period          0.99733233
		SemiMajorAxis  42175.30076935104
		Eccentricity    2.3E-4
		Inclination     0.0423
		AscendingNode   128.564
		ArgOfPericenter 303.6075
		MeanAnomaly     26.8199
		Epoch           2452341.74354919
	}
        Albedo              10
}

"99046A" "Sol/Earth"
{
	Mesh "satellite.3ds"
	Radius 0.005

	EllipticalOrbit
	{
		Period          0.9973195
		SemiMajorAxis  42174.93948718514
		Eccentricity    1.812E-4
		Inclination     0.0079
		AscendingNode   333.3348
		ArgOfPericenter 129.7441
		MeanAnomaly     171.788
		Epoch           2452346.19755845
	}
        Albedo              10
}

"99047A" "Sol/Earth"
{
	Mesh "satellite.3ds"
	Radius 0.005

	EllipticalOrbit
	{
		Period          1.0014011
		SemiMajorAxis  42289.92891953388
		Eccentricity    0.0093966
		Inclination     2.3095
		AscendingNode   88.8258
		ArgOfPericenter 177.5747
		MeanAnomaly     181.8603
		Epoch           2452341.87691806
	}
        Albedo              10
}

"99047B" "Sol/Earth"
{
	Mesh "satellite.3ds"
	Radius 0.005

	EllipticalOrbit
	{
		Period          0.9972851
		SemiMajorAxis  42173.96989902573
		Eccentricity    3.366E-4
		Inclination     0.0291
		AscendingNode   97.8163
		ArgOfPericenter 359.8896
		MeanAnomaly     128.8745
		Epoch           2452347.13370584
	}
        Albedo              10
}

"99047E" "Sol/Earth"
{
	Mesh "satellite.3ds"
	Radius 0.005

	EllipticalOrbit
	{
		Period          0.99852437
		SemiMajorAxis  42208.899969477614
		Eccentricity    0.0109319
		Inclination     2.2853
		AscendingNode   89.1174
		ArgOfPericenter 177.0636
		MeanAnomaly     182.2824
		Epoch           2452339.12999225
	}
        Albedo              10
}

"99050A" "Sol/Earth"
{
	Mesh "satellite.3ds"
	Radius 0.005

	EllipticalOrbit
	{
		Period          0.99728644
		SemiMajorAxis  42174.00686792943
		Eccentricity    1.653E-4
		Inclination     0.0276
		AscendingNode   42.0959
		ArgOfPericenter 65.7133
		MeanAnomaly     194.7035
		Epoch           2452345.90298037
	}
        Albedo              10
}

"99052A" "Sol/Earth"
{
	Mesh "satellite.3ds"
	Radius 0.005

	EllipticalOrbit
	{
		Period          0.99730647
		SemiMajorAxis  42174.57148189969
		Eccentricity    1.586E-4
		Inclination     0.0279
		AscendingNode   273.6229
		ArgOfPericenter 149.3603
		MeanAnomaly     171.2671
		Epoch           2452345.76655162
	}
        Albedo              10
}

"99053A" "Sol/Earth"
{
	Mesh "satellite.3ds"
	Radius 0.005

	EllipticalOrbit
	{
		Period          0.9972873
		SemiMajorAxis  42174.03039358698
		Eccentricity    1.511E-4
		Inclination     0.0123
		AscendingNode   349.4136
		ArgOfPericenter 183.0506
		MeanAnomaly     58.5431
		Epoch           2452346.18960175
	}
        Albedo              10
}

"99056A" "Sol/Earth"
{
	Mesh "satellite.3ds"
	Radius 0.005

	EllipticalOrbit
	{
		Period          0.99731255
		SemiMajorAxis  42174.74288182144
		Eccentricity    3.047E-4
		Inclination     0.0086
		AscendingNode   308.7553
		ArgOfPericenter 143.3989
		MeanAnomaly     217.2152
		Epoch           2452346.89479384
	}
        Albedo              10
}

"99059A" "Sol/Earth"
{
	Mesh "satellite.3ds"
	Radius 0.005

	EllipticalOrbit
	{
		Period          0.9972947
		SemiMajorAxis  42174.24044381
		Eccentricity    2.997E-4
		Inclination     0.028
		AscendingNode   16.0271
		ArgOfPericenter 49.7773
		MeanAnomaly     255.2232
		Epoch           2452346.68832391
	}
        Albedo              10
}

"99060A" "Sol/Earth"
{
	Mesh "satellite.3ds"
	Radius 0.005

	EllipticalOrbit
	{
		Period          0.99730057
		SemiMajorAxis  42174.40512281905
		Eccentricity    8.13E-5
		Inclination     0.0195
		AscendingNode   261.192
		ArgOfPericenter 257.0344
		MeanAnomaly     205.121
		Epoch           2452346.04674547
	}
        Albedo              10
}

"99063A" "Sol/Earth"
{
	Mesh "satellite.3ds"
	Radius 0.005

	EllipticalOrbit
	{
		Period          0.9973706
		SemiMajorAxis  42176.37956549334
		Eccentricity    4.114E-4
		Inclination     4.2427
		AscendingNode   308.6069
		ArgOfPericenter 120.7596
		MeanAnomaly     285.8068
		Epoch           2452346.54189069
	}
        Albedo              10
}

"99071A" "Sol/Earth"
{
	Mesh "satellite.3ds"
	Radius 0.005

	EllipticalOrbit
	{
		Period          0.9972957
		SemiMajorAxis  42174.26733020078
		Eccentricity    5.08E-5
		Inclination     0.0191
		AscendingNode   144.3289
		ArgOfPericenter 130.1316
		MeanAnomaly     24.6114
		Epoch           2452344.8435512
	}
        Albedo              10
}

"00002A" "Sol/Earth"
{
	Mesh "satellite.3ds"
	Radius 0.005

	EllipticalOrbit
	{
		Period          0.99727446
		SemiMajorAxis  42173.669105979774
		Eccentricity    2.313E-4
		Inclination     0.0168
		AscendingNode   17.901
		ArgOfPericenter 78.0079
		MeanAnomaly     183.0273
		Epoch           2452346.87088315
	}
        Albedo              10
}

"00003A" "Sol/Earth"
{
	Mesh "satellite.3ds"
	Radius 0.005

	EllipticalOrbit
	{
		Period          0.9972792
		SemiMajorAxis  42173.803538758584
		Eccentricity    4.262E-4
		Inclination     0.033
		AscendingNode   259.7959
		ArgOfPericenter 238.9703
		MeanAnomaly     17.0592
		Epoch           2452347.91203892
	}
        Albedo              10
}

"00007A" "Sol/Earth"
{
	Mesh "satellite.3ds"
	Radius 0.005

	EllipticalOrbit
	{
		Period          0.9972972
		SemiMajorAxis  42174.31102056753
		Eccentricity    2.918E-4
		Inclination     0.0069
		AscendingNode   17.3026
		ArgOfPericenter 56.5885
		MeanAnomaly     235.941
		Epoch           2452345.70196161
	}
        Albedo              10
}

